ONEWEB-0549             
1 56051U 23043F   24353.24259108  .00000005  00000+0 -20081-4 0  9997
2 56051  87.9293 352.7505 0001349  95.3636 264.7652 13.21826771 86108
ONEWEB-0550             
1 56052U 23043G   24353.30565287 -.00000012  00000+0 -60496-4 0  9996
2 56052  87.9290 352.7390 0001829  84.8524 275.2819 13.21828847 86119
ONEWEB-0551             
1 56053U 23043H   24353.29179024 -.00000010  00000+0 -61623-4 0  9996
2 56053  87.9071   7.9190 0001504  91.3150 268.8153 13.15550278 84628
ONEWEB-0552             
1 56054U 23043J   24353.07225192 -.00000007  00000+0 -49501-4 0  9998
2 56054  87.9289 352.7947 0001614  80.8101 279.3216 13.21828730 86089
ONEWEB-0553             
1 56055U 23043K   24353.21977670 -.00000058  00000+0 -18460-3 0  9995
2 56055  87.9083 337.5537 0001998  95.4047 264.7311 13.16592236 87138
ONEWEB-0554             
1 56056U 23043L   24353.35911037 -.00000007  00000+0 -52638-4 0  9996
2 56056  87.9086 337.5519 0002028  68.8338 291.3010 13.16595551 87139
ONEWEB-0555             
1 56057U 23043M   24353.24510934  .00000009  00000+0 -11192-4 0  9997
2 56057  87.9081 337.5423 0002412  94.4712 265.6694 13.16594380 87127
ONEWEB-0557             
1 56058U 23043N   24353.25935523  .00000148  00000+0  35338-3 0  9994
2 56058  87.9080 337.5640 0002770  85.7331 274.4116 13.16595020 87124
